TRANSPORTER-15 OBJECT V 
1 66685U 25276V   26068.71425446  .00015740  00000+0  72832-3 0  9999
2 66685  97.4286 144.0632 0004449  13.5049 346.6304 15.20210490 15323
FLOCK 4H-12             
1 66715U 25276BB  26068.71167506  .00007248  00000+0  34709-3 0  9998
2 66715  97.4257 144.0272 0001211 355.0450   5.0772 15.19240279 15634
