[{"OBJECT_NAME":"TRANSPORTER-15 OBJECT V","OBJECT_ID":"2025-276V","EPOCH":"2026-03-09T17:08:31.585344","MEAN_MOTION":15.2021049,"ECCENTRICITY":0.00044492,"INCLINATION":97.4286,"RA_OF_ASC_NODE":144.0632,"ARG_OF_PERICENTER":13.5049,"MEAN_ANOMALY":346.6304,"EPHEMERIS_TYPE":0,"CLASSIFICATION_TYPE":"U","NORAD_CAT_ID":66685,"ELEMENT_SET_NO":999,"REV_AT_EPOCH":1532,"BSTAR":0.00072831858,"MEAN_MOTION_DOT":0.0001574,"MEAN_MOTION_DDOT":0},{"OBJECT_NAME":"FLOCK 4H-12","OBJECT_ID":"2025-276BB","EPOCH":"2026-03-09T17:04:48.725184","MEAN_MOTION":15.1924028,"ECCENTRICITY":0.00012108,"INCLINATION":97.4257,"RA_OF_ASC_NODE":144.0272,"ARG_OF_PERICENTER":355.045,"MEAN_ANOMALY":5.0772,"EPHEMERIS_TYPE":0,"CLASSIFICATION_TYPE":"U","NORAD_CAT_ID":66715,"ELEMENT_SET_NO":999,"REV_AT_EPOCH":1563,"BSTAR":0.00034709281,"MEAN_MOTION_DOT":7.248e-5,"MEAN_MOTION_DDOT":0}]
